NORAD_CAT_ID,OBJECT_NAME,OBJECT_TYPE,EPOCH,MEAN_MOTION,ECCENTRICITY,INCLINATION,RA_OF_ASC_NODE,ARG_OF_PERICENTER,MEAN_ANOMALY,BSTAR,MEAN_MOTION_DOT,MEAN_MOTION_DDOT,TLE_LINE0,TLE_LINE1,TLE_LINE2,SEMIMAJOR_AXIS,PERIOD,APOGEE,PERIGEE,DECAYED
53155.0,STARLINK-4088,PAYLOAD,2024-03-17 12:11:29,15.08781123,0.0001504,53.2178,166.121,102.0593,258.0568,-0.00040231,-6.675e-05,0.0,0 STARLINK-4088,1 53155U 22083Z   24077.50798403 -.00006675  00000-0 -40231-3 0  9999,2 53155  53.2178 166.1210 0001504 102.0593 258.0568 15.08781123 92960,6918.06,95.441,540.966,538.885,0.0
53155.0,STARLINK-4088,PAYLOAD,2024-03-18 12:02:12,15.08859391,0.0001419,53.2176,161.6605,84.9321,275.1833,0.00028737,4.291e-05,0.0,0 STARLINK-4088,1 53155U 22083Z   24078.50152852  .00004291  00000-0  28737-3 0  9999,2 53155  53.2176 161.6605 0001419  84.9321 275.1833 15.08859391 93114,6917.821,95.436,540.668,538.704,0.0
53155.0,STARLINK-4088,PAYLOAD,2024-03-19 11:52:59,15.08826479,0.0001699,53.2182,157.1989,103.7234,256.3947,0.00054394,8.376e-05,0.0,0 STARLINK-4088,1 53155U 22083Z   24079.49513542  .00008376  00000-0  54394-3 0  9991,2 53155  53.2182 157.1989 0001699 103.7234 256.3947 15.08826479 93263,6917.922,95.438,540.962,538.611,0.0
53155.0,STARLINK-4088,PAYLOAD,2024-03-20 11:43:46,15.08850116,0.0001429,53.2177,152.7382,104.8818,255.2332,-0.00016955,-2.986e-05,0.0,0 STARLINK-4088,1 53155U 22083Z   24080.48873627 -.00002986  00000-0 -16955-3 0  9999,2 53155  53.2177 152.7382 0001429 104.8818 255.2332 15.08850116 93425,6917.849,95.437,540.703,538.726,0.0
53155.0,STARLINK-4088,PAYLOAD,2024-03-20 21:16:05,15.08849594,0.0001355,53.2182,150.9537,98.3006,261.814,-9.9943e-05,-1.879e-05,0.0,0 STARLINK-4088,1 53155U 22083Z   24080.88617166 -.00001879  00000-0 -99943-4 0  9996,2 53155  53.2182 150.9537 0001355  98.3006 261.8140 15.08849594 93481,6917.851,95.437,540.653,538.779,0.0
53155.0,STARLINK-4088,PAYLOAD,2024-03-21 11:34:34,15.08831683,0.0001313,53.2168,148.2801,89.011,271.1032,-0.00012528,-2.281e-05,0.0,0 STARLINK-4088,1 53155U 22083Z   24081.48234418 -.00002281  00000-0 -12528-3 0  9999,2 53155  53.2168 148.2801 0001313  89.0110 271.1032 15.08831683 93569,6917.906,95.438,540.679,538.862,0.0
53155.0,STARLINK-4088,PAYLOAD,2024-03-22 03:28:25,15.08837212,0.0001459,53.2175,145.3066,106.1711,253.9441,8.5844e-05,1.078e-05,0.0,0 STARLINK-4088,1 53155U 22083Z   24082.14473670  .00001078  00000-0  85844-4 0  9991,2 53155  53.2175 145.3066 0001459 106.1711 253.9441 15.08837212 93664,6917.889,95.438,540.763,538.745,0.0
53155.0,STARLINK-4088,PAYLOAD,2024-03-22 11:25:20,15.0884054,0.0001386,53.217,143.8195,91.4295,268.6856,0.00016453,2.332e-05,0.0,0 STARLINK-4088,1 53155U 22083Z   24082.47593450  .00002332  00000-0  16453-3 0  9999,2 53155  53.2170 143.8195 0001386  91.4295 268.6856 15.08840540 93725,6917.879,95.438,540.703,538.785,0.0
53155.0,STARLINK-4088,PAYLOAD,2024-03-23 11:16:09,15.08827249,0.0001367,53.2173,139.3577,89.397,270.7178,1.7513e-05,-9e-08,0.0,0 STARLINK-4088,1 53155U 22083Z   24083.46955668 -.00000009  00000-0  17513-4 0  9991,2 53155  53.2173 139.3577 0001367  89.3970 270.7178 15.08827249 93864,6917.919,95.438,540.73,538.839,0.0
53155.0,STARLINK-4088,PAYLOAD,2024-03-23 20:48:27,15.08838237,0.0001364,53.2177,137.5744,92.7588,267.356,9.138e-05,1.167e-05,0.0,0 STARLINK-4088,1 53155U 22083Z   24083.86698934  .00001167  00000-0  91380-4 0  9994,2 53155  53.2177 137.5744 0001364  92.7588 267.3560 15.08838237 93927,6917.886,95.438,540.694,538.807,0.0
53155.0,STARLINK-4088,PAYLOAD,2024-03-24 12:42:17,15.08872376,0.0001541,53.2165,134.5987,93.8911,266.2258,0.00047929,7.355e-05,0.0,0 STARLINK-4088,1 53155U 22083Z   24084.52936764  .00007355  00000-0  47929-3 0  9998,2 53155  53.2165 134.5987 0001541  93.8911 266.2258 15.08872376 94025,6917.781,95.436,540.712,538.58,0.0
53155.0,STARLINK-4088,PAYLOAD,2024-03-25 03:00:45,15.08863057,0.0001219,53.216,131.9233,118.1462,241.9653,0.00042953,6.559e-05,0.0,0 STARLINK-4088,1 53155U 22083Z   24085.12552980  .00006559  00000-0  42953-3 0  9996,2 53155  53.2160 131.9233 0001219 118.1462 241.9653 15.08863057 94114,6917.81,95.436,540.518,538.832,0.0
53155.0,STARLINK-4088,PAYLOAD,2024-03-25 09:22:18,15.08853107,0.0001426,53.217,130.7327,85.5319,274.5836,0.00030178,4.52e-05,0.0,0 STARLINK-4088,1 53155U 22083Z   24085.39049341  .00004520  00000-0  30178-3 0  9999,2 53155  53.2170 130.7327 0001426  85.5319 274.5836 15.08853107 94158,6917.84,95.437,540.692,538.719,0.0
53155.0,STARLINK-4088,PAYLOAD,2024-03-25 20:29:59,15.08859418,0.0001627,53.2177,128.649,90.1839,269.934,0.0002967,4.44e-05,0.0,0 STARLINK-4088,1 53155U 22083Z   24085.85416589  .00004440  00000-0  29670-3 0  9998,2 53155  53.2177 128.6490 0001627  90.1839 269.9340 15.08859418 94232,6917.821,95.436,540.812,538.561,0.0
53155.0,STARLINK-4088,PAYLOAD,2024-03-26 12:23:52,15.08830606,0.0001521,53.2161,125.6769,97.1082,263.0083,-0.00042938,-7.113e-05,0.0,0 STARLINK-4088,1 53155U 22083Z   24086.51657848 -.00007113  00000-0 -42938-3 0  9991,2 53155  53.2161 125.6769 0001521  97.1082 263.0083 15.08830606 94328,6917.909,95.438,540.826,538.722,0.0
53155.0,STARLINK-4088,PAYLOAD,2024-03-27 12:14:39,15.0884378,0.0001398,53.2158,121.2178,87.3269,272.7883,0.0003489,5.27e-05,0.0,0 STARLINK-4088,1 53155U 22083Z   24087.51017724  .00005270  00000-0  34890-3 0  9993,2 53155  53.2158 121.2178 0001398  87.3269 272.7883 15.08843780 94478,6917.869,95.437,540.701,538.767,0.0
53155.0,STARLINK-4088,PAYLOAD,2024-03-28 00:57:44,15.08839123,0.0001459,53.2151,118.8357,89.1286,270.9874,0.00041929,6.391e-05,0.0,0 STARLINK-4088,1 53155U 22083Z   24088.04010199  .00006391  00000-0  41929-3 0  9997,2 53155  53.2151 118.8357 0001459  89.1286 270.9874 15.08839123 94554,6917.883,95.438,540.757,538.739,0.0
53155.0,STARLINK-4088,PAYLOAD,2024-03-28 08:54:40,15.08843976,0.0001428,53.2156,117.349,84.9825,275.133,0.00028664,4.277e-05,0.0,0 STARLINK-4088,1 53155U 22083Z   24088.37130044  .00004277  00000-0  28664-3 0  9997,2 53155  53.2156 117.3490 0001428  84.9825 275.1330 15.08843976 94611,6917.868,95.437,540.721,538.745,0.0
53155.0,STARLINK-4088,PAYLOAD,2024-03-28 18:26:58,15.08850787,0.0001411,53.2159,115.5651,84.142,275.9733,0.00032491,4.888e-05,0.0,0 STARLINK-4088,1 53155U 22083Z   24088.76873588  .00004888  00000-0  32491-3 0  9998,2 53155  53.2159 115.5651 0001411  84.1420 275.9733 15.08850787 94677,6917.847,95.437,540.689,538.736,0.0
53155.0,STARLINK-4088,PAYLOAD,2024-03-29 08:45:27,15.08838614,0.000147,53.2163,112.8925,90.1993,269.9168,-2.5844e-05,-6.99e-06,0.0,0 STARLINK-4088,1 53155U 22083Z   24089.36490097 -.00000699  00000-0 -25844-4 0  9998,2 53155  53.2163 112.8925 0001470  90.1993 269.9168 15.08838614 94752,6917.885,95.438,540.767,538.733,0.0
53155.0,STARLINK-4088,PAYLOAD,2024-03-29 18:17:46,15.0884494,0.0001475,53.2164,111.1083,91.2463,268.8699,9.976e-05,1.3e-05,0.0,0 STARLINK-4088,1 53155U 22083Z   24089.76233840  .00001300  00000-0  99760-4 0  9999,2 53155  53.2164 111.1083 0001475  91.2463 268.8699 15.08844940 94823,6917.865,95.437,540.751,538.71,0.0
53155.0,STARLINK-4088,PAYLOAD,2024-03-30 11:47:00,15.08842615,0.0001528,53.2162,107.837,91.4398,268.6769,0.00013976,1.937e-05,0.0,0 STARLINK-4088,1 53155U 22083Z   24090.49098147  .00001937  00000-0  13976-3 0  9990,2 53155  53.2162 107.8370 0001528  91.4398 268.6769 15.08842615 94924,6917.872,95.437,540.794,538.68,0.0
53155.0,STARLINK-4088,PAYLOAD,2024-03-30 18:08:33,15.08847152,0.0001558,53.217,106.6473,84.964,275.153,0.00014523,2.025e-05,0.0,0 STARLINK-4088,1 53155U 22083Z   24090.75593847  .00002025  00000-0  14523-3 0  9994,2 53155  53.2170 106.6473 0001558  84.9640 275.1530 15.08847152 94979,6917.859,95.437,540.801,538.646,0.0
53155.0,STARLINK-4088,PAYLOAD,2024-03-31 10:02:24,15.08844694,0.0001586,53.2167,103.6729,85.73,274.3873,0.00019983,2.894e-05,0.0,0 STARLINK-4088,1 53155U 22083Z   24091.41834230  .00002894  00000-0  19983-3 0  9991,2 53155  53.2167 103.6729 0001586  85.7300 274.3873 15.08844694 95070,6917.866,95.437,540.828,538.634,0.0
53155.0,STARLINK-4088,PAYLOAD,2024-03-31 17:59:20,15.08849634,0.0001455,53.2164,102.1831,83.3818,276.734,0.00014054,1.95e-05,0.0,0 STARLINK-4088,1 53155U 22083Z   24091.74953719  .00001950  00000-0  14054-3 0  9997,2 53155  53.2164 102.1831 0001455  83.3818 276.7340 15.08849634 95117,6917.851,95.437,540.722,538.709,0.0
53155.0,STARLINK-4088,PAYLOAD,2024-04-01 09:53:12,15.08837141,0.0001464,53.2151,99.2122,89.5577,270.5583,7.9063e-05,9.7e-06,0.0,0 STARLINK-4088,1 53155U 22083Z   24092.41194659  .00000970  00000-0  79063-4 0  9995,2 53155  53.2151  99.2122 0001464  89.5577 270.5583 15.08837141 95214,6917.889,95.438,540.767,538.741,0.0
53155.0,STARLINK-4088,PAYLOAD,2024-04-02 06:33:13,15.0883564,0.0001658,53.2168,95.347,86.2665,273.8517,0.00011648,1.566e-05,0.0,0 STARLINK-4088,1 53155U 22083Z   24093.27307109  .00001566  00000-0  11648-3 0  9992,2 53155  53.2168  95.3470 0001658  86.2665 273.8517 15.08835640 95352,6917.894,95.438,540.906,538.612,0.0
53155.0,STARLINK-4088,PAYLOAD,2024-04-02 17:40:55,15.08839225,0.0001737,53.2179,93.2641,89.4672,270.6519,0.00017517,2.501e-05,0.0,0 STARLINK-4088,1 53155U 22083Z   24093.73675149  .00002501  00000-0  17517-3 0  9996,2 53155  53.2179  93.2641 0001737  89.4672 270.6519 15.08839225 95419,6917.883,95.438,540.949,538.546,0.0
53155.0,STARLINK-4088,PAYLOAD,2024-04-03 06:24:00,15.08848809,0.0001615,53.2168,90.8861,86.0171,274.1005,0.00037294,5.654e-05,0.0,0 STARLINK-4088,1 53155U 22083Z   24094.26666814  .00005654  00000-0  37294-3 0  9990,2 53155  53.2168  90.8861 0001615  86.0171 274.1005 15.08848809 95503,6917.853,95.437,540.836,538.601,0.0
53155.0,STARLINK-4088,PAYLOAD,2024-04-04 04:39:23,15.08843243,0.0001539,53.2162,86.7227,84.7341,275.3827,0.00013761,1.903e-05,0.0,0 STARLINK-4088,1 53155U 22083Z   24095.19402772  .00001903  00000-0  13761-3 0  9990,2 53155  53.2162  86.7227 0001539  84.7341 275.3827 15.08843243 95632,6917.87,95.437,540.8,538.671,0.0
